{
  "norad_id": 61670,
  "name": "STARLINK-32449",
  "history": [
    {
      "epoch": "2026-03-28T17:54:05.200992Z",
      "apogee_km": 475.8362144970106,
      "perigee_km": 474.67387920586407,
      "latitude_deg": 6.489226129903479e-06,
      "longitude_deg": -92.15078804321074,
      "height_km": 476.17026567484066,
      "semi_major_axis_km": 6853.392046851437,
      "eccentricity": 8.48e-05,
      "inclination_deg": 53.1649,
      "raan_deg": 2.5328,
      "arg_perigee_deg": 91.5832,
      "mean_anomaly_deg": 268.5266,
      "mean_motion_rev_day": 15.30186611
    },
    {
      "epoch": "2026-03-28T22:36:14.398848Z",
      "apogee_km": 475.71213012376666,
      "perigee_km": 474.7677347824747,
      "latitude_deg": 2.636207064829494e-05,
      "longitude_deg": -163.78942478513815,
      "height_km": 476.15652777688706,
      "semi_major_axis_km": 6853.37693245312,
      "eccentricity": 6.89e-05,
      "inclination_deg": 53.1639,
      "raan_deg": 1.6256,
      "arg_perigee_deg": 92.1038,
      "mean_anomaly_deg": 268.0042,
      "mean_motion_rev_day": 15.30191673
    },
    {
      "epoch": "2026-03-30T02:49:11.899776Z",
      "apogee_km": 476.04920414218395,
      "perigee_km": 474.47566363216356,
      "latitude_deg": -1.961158968454987e-05,
      "longitude_deg": 126.34866557376887,
      "height_km": 476.18382354250826,
      "semi_major_axis_km": 6853.3994338871735,
      "eccentricity": 0.0001148,
      "inclination_deg": 53.1622,
      "raan_deg": 356.1621,
      "arg_perigee_deg": 91.669,
      "mean_anomaly_deg": 268.4442,
      "mean_motion_rev_day": 15.30184137
    },
    {
      "epoch": "2026-03-30T02:49:11.900640Z",
      "apogee_km": 476.0491356081902,
      "perigee_km": 474.4757321661573,
      "latitude_deg": -1.8689170959364775e-05,
      "longitude_deg": 126.34866265109615,
      "height_km": 476.1838215464221,
      "semi_major_axis_km": 6853.3994338871735,
      "eccentricity": 0.00011479,
      "inclination_deg": 53.1622,
      "raan_deg": 356.1621,
      "arg_perigee_deg": 91.669,
      "mean_anomaly_deg": 268.4442,
      "mean_motion_rev_day": 15.30184137
    }
  ]
}